ALOS (DAICHI)           
1 28931U 06002A   26060.87825104  .00001671  00000+0  28843-3 0  9992
2 28931  98.1205  16.8737 0001237  51.4657 308.6660 14.69779356 72334
H-2A R/B                
1 28932U 06002B   26060.95428325  .00011549  00000+0  58100-3 0  9990
2 28932  98.2389 207.3149 0051979 267.6394  91.8884 15.16218731 93262
RESURS-DK 1             
1 29228U 06021A   26060.93105603  .00003019  00000+0  17822-3 0  9998
2 29228  69.9303 257.0940 0002523 166.1998 193.9238 15.12683583 86353
CZ-4B R/B               
1 29507U 06046C   26060.69308713  .00005349  00000+0  27228-3 0  9994
2 29507  97.5612 105.6233 0031846 296.4725  63.3242 15.16805114 58838
CZ-2C R/B               
1 31114U 07010B   26060.90591928  .00000134  00000+0  80855-4 0  9992
2 31114  98.3976 174.5752 0058119 317.6532  42.0166 14.20242927978619
COSMO-SKYMED 1          
1 31598U 07023A   26060.97511265  .00003485  00000+0  31229-3 0  9997
2 31598  97.8867 251.9461 0000868  84.5897 275.5423 14.96462391 13753
COSMOS 2428             
1 31792U 07029A   26060.88885252  .00000095  00000+0  76733-4 0  9993
2 31792  70.9418 219.7167 0008666 285.4895  74.5269 14.12943981962993
SL-16 R/B               
1 31793U 07029B   26060.80638833 -.00000213  00000+0 -85424-4 0  9998
2 31793  70.9755 188.9544 0002428 278.7766 243.1064 14.14834314964255
KORONAS-FOTON           
1 33504U 09003A   26060.65903257  .00012426  00000+0  27971-3 0  9991
2 33504  82.4288 284.2272 0010588 177.1422 182.9888 15.43091717944506
CZ-2C R/B               
1 37731U 11030B   26060.91163821  .00002013  00000+0  25939-3 0  9997
2 37731  97.8528  18.3315 0053173  17.3023  48.4165 14.81184681788944
H-2A R/B                
1 38341U 12025E   26060.89844359  .00004615  00000+0  41927-3 0  9994
2 38341  98.4706  27.3218 0044127 340.0018  19.9469 14.95082925747058
SHIJIAN-16 (SJ-16)      
1 39358U 13057A   26060.91944115  .00000978  00000+0  98423-4 0  9995
2 39358  74.9715 199.7965 0015879 132.6506 227.6024 14.92294657670344
