CCSDS_OMM_VERS = 2.0
CREATION_DATE  = 
ORIGINATOR     = 

OBJECT_NAME    = ALOS (DAICHI)
OBJECT_ID      = 2006-002A
CENTER_NAME    = EARTH
REF_FRAME      = TEME
TIME_SYSTEM    = UTC
MEAN_ELEMENT_THEORY = SGP/SGP4

EPOCH          = 2026-03-01T21:04:40.889856
MEAN_MOTION    = 14.69779356
ECCENTRICITY   = .00012378
INCLINATION    = 98.1205
RA_OF_ASC_NODE = 16.8737
ARG_OF_PERICENTER = 51.4657
MEAN_ANOMALY   = 308.6660

EPHEMERIS_TYPE = 0
CLASSIFICATION_TYPE = U
NORAD_CAT_ID   = 28931
ELEMENT_SET_NO = 999
REV_AT_EPOCH   = 7233
BSTAR          = .28843136E-3
MEAN_MOTION_DOT = .1671E-4
MEAN_MOTION_DDOT = 0

CCSDS_OMM_VERS = 2.0
CREATION_DATE  = 
ORIGINATOR     = 

OBJECT_NAME    = H-2A R/B
OBJECT_ID      = 2006-002B
CENTER_NAME    = EARTH
REF_FRAME      = TEME
TIME_SYSTEM    = UTC
MEAN_ELEMENT_THEORY = SGP/SGP4

EPOCH          = 2026-03-01T22:54:10.072800
MEAN_MOTION    = 15.16218731
ECCENTRICITY   = .0051979
INCLINATION    = 98.2389
RA_OF_ASC_NODE = 207.3149
ARG_OF_PERICENTER = 267.6394
MEAN_ANOMALY   = 91.8884

EPHEMERIS_TYPE = 0
CLASSIFICATION_TYPE = U
NORAD_CAT_ID   = 28932
ELEMENT_SET_NO = 999
REV_AT_EPOCH   = 9326
BSTAR          = .58100245E-3
MEAN_MOTION_DOT = .11549E-3
MEAN_MOTION_DDOT = 0

CCSDS_OMM_VERS = 2.0
CREATION_DATE  = 
ORIGINATOR     = 

OBJECT_NAME    = RESURS-DK 1
OBJECT_ID      = 2006-021A
CENTER_NAME    = EARTH
REF_FRAME      = TEME
TIME_SYSTEM    = UTC
MEAN_ELEMENT_THEORY = SGP/SGP4

EPOCH          = 2026-03-01T22:20:43.240992
MEAN_MOTION    = 15.12683583
ECCENTRICITY   = .00025231
INCLINATION    = 69.9303
RA_OF_ASC_NODE = 257.0940
ARG_OF_PERICENTER = 166.1998
MEAN_ANOMALY   = 193.9238

EPHEMERIS_TYPE = 0
CLASSIFICATION_TYPE = U
NORAD_CAT_ID   = 29228
ELEMENT_SET_NO = 999
REV_AT_EPOCH   = 8635
BSTAR          = .17822165E-3
MEAN_MOTION_DOT = .3019E-4
MEAN_MOTION_DDOT = 0

CCSDS_OMM_VERS = 2.0
CREATION_DATE  = 
ORIGINATOR     = 

OBJECT_NAME    = CZ-4B R/B
OBJECT_ID      = 2006-046C
CENTER_NAME    = EARTH
REF_FRAME      = TEME
TIME_SYSTEM    = UTC
MEAN_ELEMENT_THEORY = SGP/SGP4

EPOCH          = 2026-03-01T16:38:02.728032
MEAN_MOTION    = 15.16805114
ECCENTRICITY   = .00318462
INCLINATION    = 97.5612
RA_OF_ASC_NODE = 105.6233
ARG_OF_PERICENTER = 296.4725
MEAN_ANOMALY   = 63.3242

EPHEMERIS_TYPE = 0
CLASSIFICATION_TYPE = U
NORAD_CAT_ID   = 29507
ELEMENT_SET_NO = 999
REV_AT_EPOCH   = 5883
BSTAR          = .27227723E-3
MEAN_MOTION_DOT = .5349E-4
MEAN_MOTION_DDOT = 0

CCSDS_OMM_VERS = 2.0
CREATION_DATE  = 
ORIGINATOR     = 

OBJECT_NAME    = CZ-2C R/B
OBJECT_ID      = 2007-010B
CENTER_NAME    = EARTH
REF_FRAME      = TEME
TIME_SYSTEM    = UTC
MEAN_ELEMENT_THEORY = SGP/SGP4

EPOCH          = 2026-03-01T21:44:31.425792
MEAN_MOTION    = 14.20242927
ECCENTRICITY   = .00581194
INCLINATION    = 98.3976
RA_OF_ASC_NODE = 174.5752
ARG_OF_PERICENTER = 317.6532
MEAN_ANOMALY   = 42.0166

EPHEMERIS_TYPE = 0
CLASSIFICATION_TYPE = U
NORAD_CAT_ID   = 31114
ELEMENT_SET_NO = 999
REV_AT_EPOCH   = 97861
BSTAR          = .80855449E-4
MEAN_MOTION_DOT = .134E-5
MEAN_MOTION_DDOT = 0

CCSDS_OMM_VERS = 2.0
CREATION_DATE  = 
ORIGINATOR     = 

OBJECT_NAME    = COSMO-SKYMED 1
OBJECT_ID      = 2007-023A
CENTER_NAME    = EARTH
REF_FRAME      = TEME
TIME_SYSTEM    = UTC
MEAN_ELEMENT_THEORY = SGP/SGP4

EPOCH          = 2026-03-01T23:24:09.732960
MEAN_MOTION    = 14.96462391
ECCENTRICITY   = .00008687
INCLINATION    = 97.8867
RA_OF_ASC_NODE = 251.9461
ARG_OF_PERICENTER = 84.5897
MEAN_ANOMALY   = 275.5423

EPHEMERIS_TYPE = 0
CLASSIFICATION_TYPE = U
NORAD_CAT_ID   = 31598
ELEMENT_SET_NO = 999
REV_AT_EPOCH   = 1375
BSTAR          = .31229297E-3
MEAN_MOTION_DOT = .3485E-4
MEAN_MOTION_DDOT = 0

CCSDS_OMM_VERS = 2.0
CREATION_DATE  = 
ORIGINATOR     = 

OBJECT_NAME    = COSMOS 2428
OBJECT_ID      = 2007-029A
CENTER_NAME    = EARTH
REF_FRAME      = TEME
TIME_SYSTEM    = UTC
MEAN_ELEMENT_THEORY = SGP/SGP4

EPOCH          = 2026-03-01T21:19:56.857728
MEAN_MOTION    = 14.12943981
ECCENTRICITY   = .00086668
INCLINATION    = 70.9418
RA_OF_ASC_NODE = 219.7167
ARG_OF_PERICENTER = 285.4895
MEAN_ANOMALY   = 74.5269

EPHEMERIS_TYPE = 0
CLASSIFICATION_TYPE = U
NORAD_CAT_ID   = 31792
ELEMENT_SET_NO = 999
REV_AT_EPOCH   = 96299
BSTAR          = .76732934E-4
MEAN_MOTION_DOT = .95E-6
MEAN_MOTION_DDOT = 0

CCSDS_OMM_VERS = 2.0
CREATION_DATE  = 
ORIGINATOR     = 

OBJECT_NAME    = SL-16 R/B
OBJECT_ID      = 2007-029B
CENTER_NAME    = EARTH
REF_FRAME      = TEME
TIME_SYSTEM    = UTC
MEAN_ELEMENT_THEORY = SGP/SGP4

EPOCH          = 2026-03-01T19:21:11.951712
MEAN_MOTION    = 14.14834314
ECCENTRICITY   = .00024288
INCLINATION    = 70.9755
RA_OF_ASC_NODE = 188.9544
ARG_OF_PERICENTER = 278.7766
MEAN_ANOMALY   = 243.1064

EPHEMERIS_TYPE = 0
CLASSIFICATION_TYPE = U
NORAD_CAT_ID   = 31793
ELEMENT_SET_NO = 999
REV_AT_EPOCH   = 96425
BSTAR          = -.85424266E-4
MEAN_MOTION_DOT = -.213E-5
MEAN_MOTION_DDOT = 0

CCSDS_OMM_VERS = 2.0
CREATION_DATE  = 
ORIGINATOR     = 

OBJECT_NAME    = KORONAS-FOTON
OBJECT_ID      = 2009-003A
CENTER_NAME    = EARTH
REF_FRAME      = TEME
TIME_SYSTEM    = UTC
MEAN_ELEMENT_THEORY = SGP/SGP4

EPOCH          = 2026-03-01T15:49:00.414048
MEAN_MOTION    = 15.43091717
ECCENTRICITY   = .0010588
INCLINATION    = 82.4288
RA_OF_ASC_NODE = 284.2272
ARG_OF_PERICENTER = 177.1422
MEAN_ANOMALY   = 182.9888

EPHEMERIS_TYPE = 0
CLASSIFICATION_TYPE = U
NORAD_CAT_ID   = 33504
ELEMENT_SET_NO = 999
REV_AT_EPOCH   = 94450
BSTAR          = .27970994E-3
MEAN_MOTION_DOT = .12426E-3
MEAN_MOTION_DDOT = 0

CCSDS_OMM_VERS = 2.0
CREATION_DATE  = 
ORIGINATOR     = 

OBJECT_NAME    = CZ-2C R/B
OBJECT_ID      = 2011-030B
CENTER_NAME    = EARTH
REF_FRAME      = TEME
TIME_SYSTEM    = UTC
MEAN_ELEMENT_THEORY = SGP/SGP4

EPOCH          = 2026-03-01T21:52:45.541344
MEAN_MOTION    = 14.81184681
ECCENTRICITY   = .00531739
INCLINATION    = 97.8528
RA_OF_ASC_NODE = 18.3315
ARG_OF_PERICENTER = 17.3023
MEAN_ANOMALY   = 48.4165

EPHEMERIS_TYPE = 0
CLASSIFICATION_TYPE = U
NORAD_CAT_ID   = 37731
ELEMENT_SET_NO = 999
REV_AT_EPOCH   = 78894
BSTAR          = .25938803E-3
MEAN_MOTION_DOT = .2013E-4
MEAN_MOTION_DDOT = 0

CCSDS_OMM_VERS = 2.0
CREATION_DATE  = 
ORIGINATOR     = 

OBJECT_NAME    = H-2A R/B
OBJECT_ID      = 2012-025E
CENTER_NAME    = EARTH
REF_FRAME      = TEME
TIME_SYSTEM    = UTC
MEAN_ELEMENT_THEORY = SGP/SGP4

EPOCH          = 2026-03-01T21:33:45.526176
MEAN_MOTION    = 14.95082925
ECCENTRICITY   = .00441277
INCLINATION    = 98.4706
RA_OF_ASC_NODE = 27.3218
ARG_OF_PERICENTER = 340.0018
MEAN_ANOMALY   = 19.9469

EPHEMERIS_TYPE = 0
CLASSIFICATION_TYPE = U
NORAD_CAT_ID   = 38341
ELEMENT_SET_NO = 999
REV_AT_EPOCH   = 74705
BSTAR          = .41927456E-3
MEAN_MOTION_DOT = .4615E-4
MEAN_MOTION_DDOT = 0

CCSDS_OMM_VERS = 2.0
CREATION_DATE  = 
ORIGINATOR     = 

OBJECT_NAME    = SHIJIAN-16 (SJ-16)
OBJECT_ID      = 2013-057A
CENTER_NAME    = EARTH
REF_FRAME      = TEME
TIME_SYSTEM    = UTC
MEAN_ELEMENT_THEORY = SGP/SGP4

EPOCH          = 2026-03-01T22:03:59.715360
MEAN_MOTION    = 14.92294657
ECCENTRICITY   = .00158791
INCLINATION    = 74.9715
RA_OF_ASC_NODE = 199.7965
ARG_OF_PERICENTER = 132.6506
MEAN_ANOMALY   = 227.6024

EPHEMERIS_TYPE = 0
CLASSIFICATION_TYPE = U
NORAD_CAT_ID   = 39358
ELEMENT_SET_NO = 999
REV_AT_EPOCH   = 67034
BSTAR          = .98423497E-4
MEAN_MOTION_DOT = .978E-5
MEAN_MOTION_DDOT = 0

